[{"OBJECT_NAME":"INMARSAT 4-F2 (SOUTHPAN/PRN 122)","OBJECT_ID":"2005-044A","EPOCH":"2026-04-27T05:04:51.521088","MEAN_MOTION":1.00270882,"ECCENTRICITY":0.0002771,"INCLINATION":5.0317,"RA_OF_ASC_NODE":43.7613,"ARG_OF_PERICENTER":350.4086,"MEAN_ANOMALY":40.6976,"EPHEMERIS_TYPE":0,"CLASSIFICATION_TYPE":"U","NORAD_CAT_ID":28899,"ELEMENT_SET_NO":999,"REV_AT_EPOCH":7501,"BSTAR":0,"MEAN_MOTION_DOT":-2.68e-6,"MEAN_MOTION_DDOT":0},{"OBJECT_NAME":"GSAT-8 (GAGAN/PRN 127)","OBJECT_ID":"2011-022A","EPOCH":"2026-04-27T02:07:51.551904","MEAN_MOTION":1.00270514,"ECCENTRICITY":0.00046874,"INCLINATION":2.0009,"RA_OF_ASC_NODE":82.4145,"ARG_OF_PERICENTER":227.4448,"MEAN_ANOMALY":352.2573,"EPHEMERIS_TYPE":0,"CLASSIFICATION_TYPE":"U","NORAD_CAT_ID":37605,"ELEMENT_SET_NO":999,"REV_AT_EPOCH":5270,"BSTAR":0,"MEAN_MOTION_DOT":7.6e-7,"MEAN_MOTION_DDOT":0},{"OBJECT_NAME":"LUCH 5A (SDCM/PRN 140)","OBJECT_ID":"2011-074B","EPOCH":"2026-04-27T02:34:38.741376","MEAN_MOTION":1.00273004,"ECCENTRICITY":0.0002752,"INCLINATION":8.6271,"RA_OF_ASC_NODE":74.5436,"ARG_OF_PERICENTER":305.3035,"MEAN_ANOMALY":40.8405,"EPHEMERIS_TYPE":0,"CLASSIFICATION_TYPE":"U","NORAD_CAT_ID":37951,"ELEMENT_SET_NO":999,"REV_AT_EPOCH":5253,"BSTAR":0,"MEAN_MOTION_DOT":-5.4e-7,"MEAN_MOTION_DDOT":0},{"OBJECT_NAME":"SES-5 (EGNOS/PRN 136)","OBJECT_ID":"2012-036A","EPOCH":"2026-04-27T05:20:38.796864","MEAN_MOTION":1.00271777,"ECCENTRICITY":0.00019462,"INCLINATION":0.0599,"RA_OF_ASC_NODE":300.3439,"ARG_OF_PERICENTER":94.9629,"MEAN_ANOMALY":265.0472,"EPHEMERIS_TYPE":0,"CLASSIFICATION_TYPE":"U","NORAD_CAT_ID":38652,"ELEMENT_SET_NO":999,"REV_AT_EPOCH":4394,"BSTAR":0,"MEAN_MOTION_DOT":2.4e-7,"MEAN_MOTION_DDOT":0},{"OBJECT_NAME":"GSAT-10 (GAGAN/PRN 128)","OBJECT_ID":"2012-051B","EPOCH":"2026-04-27T00:13:40.908000","MEAN_MOTION":1.00270014,"ECCENTRICITY":0.00070132,"INCLINATION":0.0226,"RA_OF_ASC_NODE":263.314,"ARG_OF_PERICENTER":178.6142,"MEAN_ANOMALY":219.4606,"EPHEMERIS_TYPE":0,"CLASSIFICATION_TYPE":"U","NORAD_CAT_ID":38779,"ELEMENT_SET_NO":999,"REV_AT_EPOCH":4958,"BSTAR":0,"MEAN_MOTION_DOT":-1.75e-6,"MEAN_MOTION_DDOT":0},{"OBJECT_NAME":"LUCH 5B (SDCM/PRN 125)","OBJECT_ID":"2012-061A","EPOCH":"2026-04-27T01:28:11.261280","MEAN_MOTION":1.00271707,"ECCENTRICITY":0.00017183,"INCLINATION":10.3768,"RA_OF_ASC_NODE":50.3818,"ARG_OF_PERICENTER":214.0239,"MEAN_ANOMALY":316.4236,"EPHEMERIS_TYPE":0,"CLASSIFICATION_TYPE":"U","NORAD_CAT_ID":38977,"ELEMENT_SET_NO":999,"REV_AT_EPOCH":4909,"BSTAR":0,"MEAN_MOTION_DOT":-1.43e-6,"MEAN_MOTION_DDOT":0},{"OBJECT_NAME":"ASTRA 5B (EGNOS/PRN 123)","OBJECT_ID":"2014-011B","EPOCH":"2026-04-27T05:04:38.648352","MEAN_MOTION":1.00269971,"ECCENTRICITY":0.00026716,"INCLINATION":0.067,"RA_OF_ASC_NODE":308.1483,"ARG_OF_PERICENTER":66.3516,"MEAN_ANOMALY":300.3554,"EPHEMERIS_TYPE":0,"CLASSIFICATION_TYPE":"U","NORAD_CAT_ID":39617,"ELEMENT_SET_NO":999,"REV_AT_EPOCH":4415,"BSTAR":0,"MEAN_MOTION_DOT":1.27e-6,"MEAN_MOTION_DDOT":0},{"OBJECT_NAME":"LUCH 5V (SDCM/PRN 141)","OBJECT_ID":"2014-023A","EPOCH":"2026-04-26T23:02:21.569568","MEAN_MOTION":1.00271811,"ECCENTRICITY":0.00022578,"INCLINATION":5.0096,"RA_OF_ASC_NODE":70.2468,"ARG_OF_PERICENTER":339.373,"MEAN_ANOMALY":245.6892,"EPHEMERIS_TYPE":0,"CLASSIFICATION_TYPE":"U","NORAD_CAT_ID":39727,"ELEMENT_SET_NO":999,"REV_AT_EPOCH":4384,"BSTAR":0,"MEAN_MOTION_DOT":-2.76e-6,"MEAN_MOTION_DDOT":0},{"OBJECT_NAME":"GSAT-15 (GAGAN/PRN 139)","OBJECT_ID":"2015-065A","EPOCH":"2026-04-27T04:51:21.770784","MEAN_MOTION":1.00271901,"ECCENTRICITY":0.00037471,"INCLINATION":0.0676,"RA_OF_ASC_NODE":257.0168,"ARG_OF_PERICENTER":145.563,"MEAN_ANOMALY":338.9662,"EPHEMERIS_TYPE":0,"CLASSIFICATION_TYPE":"U","NORAD_CAT_ID":41028,"ELEMENT_SET_NO":999,"REV_AT_EPOCH":3828,"BSTAR":0,"MEAN_MOTION_DOT":-2.68e-6,"MEAN_MOTION_DDOT":0},{"OBJECT_NAME":"EUTELSAT 117 WEST B (WAAS/PRN 131)","OBJECT_ID":"2016-038B","EPOCH":"2026-04-27T00:59:21.527232","MEAN_MOTION":1.0027203,"ECCENTRICITY":4.24e-6,"INCLINATION":0.0118,"RA_OF_ASC_NODE":96.1942,"ARG_OF_PERICENTER":27.7845,"MEAN_ANOMALY":348.9074,"EPHEMERIS_TYPE":0,"CLASSIFICATION_TYPE":"U","NORAD_CAT_ID":41589,"ELEMENT_SET_NO":999,"REV_AT_EPOCH":3615,"BSTAR":0,"MEAN_MOTION_DOT":-2.2e-7,"MEAN_MOTION_DDOT":0},{"OBJECT_NAME":"SES-15 (WAAS/PRN 133)","OBJECT_ID":"2017-026A","EPOCH":"2026-04-27T05:56:51.547776","MEAN_MOTION":1.00270096,"ECCENTRICITY":6.512e-5,"INCLINATION":0.0244,"RA_OF_ASC_NODE":328.856,"ARG_OF_PERICENTER":43.7721,"MEAN_ANOMALY":162.6676,"EPHEMERIS_TYPE":0,"CLASSIFICATION_TYPE":"U","NORAD_CAT_ID":42709,"ELEMENT_SET_NO":999,"REV_AT_EPOCH":692,"BSTAR":0,"MEAN_MOTION_DOT":5.0e-7,"MEAN_MOTION_DDOT":0},{"OBJECT_NAME":"QZS-2 (QZSS/PRN 194)","OBJECT_ID":"2017-028A","EPOCH":"2026-04-26T05:37:22.429632","MEAN_MOTION":1.0024752,"ECCENTRICITY":0.07403185,"INCLINATION":39.5095,"RA_OF_ASC_NODE":243.912,"ARG_OF_PERICENTER":270.8047,"MEAN_ANOMALY":281.9812,"EPHEMERIS_TYPE":0,"CLASSIFICATION_TYPE":"U","NORAD_CAT_ID":42738,"ELEMENT_SET_NO":999,"REV_AT_EPOCH":710,"BSTAR":0,"MEAN_MOTION_DOT":-2.66e-6,"MEAN_MOTION_DDOT":0},{"OBJECT_NAME":"QZS-3 (QZSS/PRN 199)","OBJECT_ID":"2017-048A","EPOCH":"2026-04-27T05:34:38.641152","MEAN_MOTION":1.00270802,"ECCENTRICITY":0.00013709,"INCLINATION":0.0516,"RA_OF_ASC_NODE":180.1623,"ARG_OF_PERICENTER":205.0588,"MEAN_ANOMALY":40.6963,"EPHEMERIS_TYPE":0,"CLASSIFICATION_TYPE":"U","NORAD_CAT_ID":42917,"ELEMENT_SET_NO":999,"REV_AT_EPOCH":3174,"BSTAR":0,"MEAN_MOTION_DOT":-3.58e-6,"MEAN_MOTION_DDOT":0},{"OBJECT_NAME":"QZS-4 (QZSS/PRN 195)","OBJECT_ID":"2017-062A","EPOCH":"2026-04-22T16:00:20.725056","MEAN_MOTION":1.00266456,"ECCENTRICITY":0.07466255,"INCLINATION":40.1416,"RA_OF_ASC_NODE":344.1915,"ARG_OF_PERICENTER":270.8161,"MEAN_ANOMALY":335.9811,"EPHEMERIS_TYPE":0,"CLASSIFICATION_TYPE":"U","NORAD_CAT_ID":42965,"ELEMENT_SET_NO":999,"REV_AT_EPOCH":3124,"BSTAR":0,"MEAN_MOTION_DOT":-3.26e-6,"MEAN_MOTION_DDOT":0},{"OBJECT_NAME":"BEIDOU-3 G1 (PRN 130)","OBJECT_ID":"2018-085A","EPOCH":"2026-04-27T08:05:20.046912","MEAN_MOTION":1.00265526,"ECCENTRICITY":0.00074002,"INCLINATION":2.9474,"RA_OF_ASC_NODE":98.7204,"ARG_OF_PERICENTER":333.3641,"MEAN_ANOMALY":64.4946,"EPHEMERIS_TYPE":0,"CLASSIFICATION_TYPE":"U","NORAD_CAT_ID":43683,"ELEMENT_SET_NO":999,"REV_AT_EPOCH":2755,"BSTAR":0,"MEAN_MOTION_DOT":-1.17e-6,"MEAN_MOTION_DDOT":0},{"OBJECT_NAME":"EUTELSAT 5 WEST B (EGNOS/PRN 121)","OBJECT_ID":"2019-067A","EPOCH":"2026-04-27T05:28:38.743680","MEAN_MOTION":1.00271585,"ECCENTRICITY":0.00031831,"INCLINATION":0.0693,"RA_OF_ASC_NODE":11.9053,"ARG_OF_PERICENTER":24.7405,"MEAN_ANOMALY":255.7273,"EPHEMERIS_TYPE":0,"CLASSIFICATION_TYPE":"U","NORAD_CAT_ID":44624,"ELEMENT_SET_NO":999,"REV_AT_EPOCH":2392,"BSTAR":0,"MEAN_MOTION_DOT":-5.2e-7,"MEAN_MOTION_DDOT":0},{"OBJECT_NAME":"BEIDOU-3 G2 (PRN 144)","OBJECT_ID":"2020-017A","EPOCH":"2026-04-27T00:12:55.980000","MEAN_MOTION":1.00271422,"ECCENTRICITY":0.00025506,"INCLINATION":2.7634,"RA_OF_ASC_NODE":46.5387,"ARG_OF_PERICENTER":348.2319,"MEAN_ANOMALY":263.5062,"EPHEMERIS_TYPE":0,"CLASSIFICATION_TYPE":"U","NORAD_CAT_ID":45344,"ELEMENT_SET_NO":999,"REV_AT_EPOCH":2274,"BSTAR":0,"MEAN_MOTION_DOT":-1.49e-6,"MEAN_MOTION_DDOT":0}]
